IDEFIX & ARIANE 42P R/B 
1 27422U 02021B   26007.38483409  .00000380  00000+0  16112-3 0  9990
2 27422  98.5813 306.7468 0012178  13.4757 346.6749 14.30973833235250
AQUA                    
1 27424U 02022A   26004.96787593  .00001598  00000+0  32997-3 0  9996
2 27424  98.4069 331.2279 0002002  90.2377   0.6092 14.61798176259425
CZ-4B R/B               
1 27432U 02024C   26007.38314890  .00000068  00000+0  57868-4 0  9998
2 27432  98.8957  61.0605 0049947 196.1334 175.6625 14.14534436220577
MIDORI II (ADEOS-II)    
1 27597U 02056A   26007.47840921  .00000399  00000+0  17481-3 0  9997
2 27597  98.7670 325.5746 0001410 128.9072 231.2235 14.29229684201554
H-2A R/B                
1 27601U 02056E   26007.51231645  .00000469  00000+0  17912-3 0  9992
2 27601  98.3099 330.2481 0070064 344.9220 123.6550 14.33705212205342
CZ-4B R/B               
1 28059U 03049C   26007.45399247  .00000514  00000+0  12933-3 0  9998
2 28059  98.6807 359.9921 0049231  59.2576 301.3455 14.54940614177694
CZ-2C R/B               
1 28222U 04012C   26007.13271030  .00042199  00000+0  56335-3 0  9994
2 28222  97.7366  66.8859 0016788 173.7681 186.3786 15.57804342194676
SL-16 R/B               
1 28353U 04021B   26007.43190099  .00000273  00000+0  16668-3 0  9999
2 28353  71.0021   1.0468 0003658 157.5814 202.5469 14.14590100114173
CZ-4B R/B               
1 28415U 04035C   26007.37015431  .00008007  00000+0  29234-3 0  9998
2 28415  97.3575  42.3758 0032740 183.3065 176.7963 15.27878226170543
CZ-2C R/B               
1 28480U 04046B   26007.48223773  .00000346  00000+0  14404-3 0  9995
2 28480  98.1999 286.2625 0139080 336.3565  23.1265 14.26961616 99775
ARIANE 5 R/B            
1 28499U 04049H   26007.45872059  .00001622  00000+0  18518-3 0  9990
2 28499  98.2539 173.6660 0084188 188.7580 171.2170 14.85100198136708
CZ-2D R/B               
1 28738U 05024B   26007.47873721  .00028245  00000+0  42182-3 0  9993
2 28738  97.3625  20.6301 0003267 227.5309 132.5669 15.55004230130258
