CCSDS_OMM_VERS = 2.0
CREATION_DATE  = 
ORIGINATOR     = 

OBJECT_NAME    = IDEFIX & ARIANE 42P R/B
OBJECT_ID      = 2002-021B
CENTER_NAME    = EARTH
REF_FRAME      = TEME
TIME_SYSTEM    = UTC
MEAN_ELEMENT_THEORY = SGP/SGP4

EPOCH          = 2026-01-07T09:14:09.665376
MEAN_MOTION    = 14.30973833
ECCENTRICITY   = .0012178
INCLINATION    = 98.5813
RA_OF_ASC_NODE = 306.7468
ARG_OF_PERICENTER = 13.4757
MEAN_ANOMALY   = 346.6749

EPHEMERIS_TYPE = 0
CLASSIFICATION_TYPE = U
NORAD_CAT_ID   = 27422
ELEMENT_SET_NO = 999
REV_AT_EPOCH   = 23525
BSTAR          = .16112E-3
MEAN_MOTION_DOT = .38E-5
MEAN_MOTION_DDOT = 0

CCSDS_OMM_VERS = 2.0
CREATION_DATE  = 
ORIGINATOR     = 

OBJECT_NAME    = AQUA
OBJECT_ID      = 2002-022A
CENTER_NAME    = EARTH
REF_FRAME      = TEME
TIME_SYSTEM    = UTC
MEAN_ELEMENT_THEORY = SGP/SGP4

EPOCH          = 2026-01-04T23:13:44.480352
MEAN_MOTION    = 14.61798176
ECCENTRICITY   = .00020022
INCLINATION    = 98.4069
RA_OF_ASC_NODE = 331.2279
ARG_OF_PERICENTER = 90.2377
MEAN_ANOMALY   = 0.6092

EPHEMERIS_TYPE = 0
CLASSIFICATION_TYPE = U
NORAD_CAT_ID   = 27424
ELEMENT_SET_NO = 999
REV_AT_EPOCH   = 25942
BSTAR          = .32996806E-3
MEAN_MOTION_DOT = .1598E-4
MEAN_MOTION_DDOT = 0

CCSDS_OMM_VERS = 2.0
CREATION_DATE  = 
ORIGINATOR     = 

OBJECT_NAME    = CZ-4B R/B
OBJECT_ID      = 2002-024C
CENTER_NAME    = EARTH
REF_FRAME      = TEME
TIME_SYSTEM    = UTC
MEAN_ELEMENT_THEORY = SGP/SGP4

EPOCH          = 2026-01-07T09:11:44.064960
MEAN_MOTION    = 14.14534436
ECCENTRICITY   = .0049947
INCLINATION    = 98.8957
RA_OF_ASC_NODE = 61.0605
ARG_OF_PERICENTER = 196.1334
MEAN_ANOMALY   = 175.6625

EPHEMERIS_TYPE = 0
CLASSIFICATION_TYPE = U
NORAD_CAT_ID   = 27432
ELEMENT_SET_NO = 999
REV_AT_EPOCH   = 22057
BSTAR          = .57868E-4
MEAN_MOTION_DOT = .68E-6
MEAN_MOTION_DDOT = 0

CCSDS_OMM_VERS = 2.0
CREATION_DATE  = 
ORIGINATOR     = 

OBJECT_NAME    = MIDORI II (ADEOS-II)
OBJECT_ID      = 2002-056A
CENTER_NAME    = EARTH
REF_FRAME      = TEME
TIME_SYSTEM    = UTC
MEAN_ELEMENT_THEORY = SGP/SGP4

EPOCH          = 2026-01-07T11:28:54.555744
MEAN_MOTION    = 14.29229684
ECCENTRICITY   = .000141
INCLINATION    = 98.7670
RA_OF_ASC_NODE = 325.5746
ARG_OF_PERICENTER = 128.9072
MEAN_ANOMALY   = 231.2235

EPHEMERIS_TYPE = 0
CLASSIFICATION_TYPE = U
NORAD_CAT_ID   = 27597
ELEMENT_SET_NO = 999
REV_AT_EPOCH   = 20155
BSTAR          = .17481E-3
MEAN_MOTION_DOT = .399E-5
MEAN_MOTION_DDOT = 0

CCSDS_OMM_VERS = 2.0
CREATION_DATE  = 
ORIGINATOR     = 

OBJECT_NAME    = H-2A R/B
OBJECT_ID      = 2002-056E
CENTER_NAME    = EARTH
REF_FRAME      = TEME
TIME_SYSTEM    = UTC
MEAN_ELEMENT_THEORY = SGP/SGP4

EPOCH          = 2026-01-07T12:17:44.141280
MEAN_MOTION    = 14.33705212
ECCENTRICITY   = .0070064
INCLINATION    = 98.3099
RA_OF_ASC_NODE = 330.2481
ARG_OF_PERICENTER = 344.9220
MEAN_ANOMALY   = 123.6550

EPHEMERIS_TYPE = 0
CLASSIFICATION_TYPE = U
NORAD_CAT_ID   = 27601
ELEMENT_SET_NO = 999
REV_AT_EPOCH   = 20534
BSTAR          = .17912E-3
MEAN_MOTION_DOT = .469E-5
MEAN_MOTION_DDOT = 0

CCSDS_OMM_VERS = 2.0
CREATION_DATE  = 
ORIGINATOR     = 

OBJECT_NAME    = CZ-4B R/B
OBJECT_ID      = 2003-049C
CENTER_NAME    = EARTH
REF_FRAME      = TEME
TIME_SYSTEM    = UTC
MEAN_ELEMENT_THEORY = SGP/SGP4

EPOCH          = 2026-01-07T10:53:44.949408
MEAN_MOTION    = 14.54940614
ECCENTRICITY   = .0049231
INCLINATION    = 98.6807
RA_OF_ASC_NODE = 359.9921
ARG_OF_PERICENTER = 59.2576
MEAN_ANOMALY   = 301.3455

EPHEMERIS_TYPE = 0
CLASSIFICATION_TYPE = U
NORAD_CAT_ID   = 28059
ELEMENT_SET_NO = 999
REV_AT_EPOCH   = 17769
BSTAR          = .12933E-3
MEAN_MOTION_DOT = .514E-5
MEAN_MOTION_DDOT = 0

CCSDS_OMM_VERS = 2.0
CREATION_DATE  = 
ORIGINATOR     = 

OBJECT_NAME    = CZ-2C R/B
OBJECT_ID      = 2004-012C
CENTER_NAME    = EARTH
REF_FRAME      = TEME
TIME_SYSTEM    = UTC
MEAN_ELEMENT_THEORY = SGP/SGP4

EPOCH          = 2026-01-07T03:11:06.169920
MEAN_MOTION    = 15.57804342
ECCENTRICITY   = .00167884
INCLINATION    = 97.7366
RA_OF_ASC_NODE = 66.8859
ARG_OF_PERICENTER = 173.7681
MEAN_ANOMALY   = 186.3786

EPHEMERIS_TYPE = 0
CLASSIFICATION_TYPE = U
NORAD_CAT_ID   = 28222
ELEMENT_SET_NO = 999
REV_AT_EPOCH   = 19467
BSTAR          = .56334585E-3
MEAN_MOTION_DOT = .42199E-3
MEAN_MOTION_DDOT = 0

CCSDS_OMM_VERS = 2.0
CREATION_DATE  = 
ORIGINATOR     = 

OBJECT_NAME    = SL-16 R/B
OBJECT_ID      = 2004-021B
CENTER_NAME    = EARTH
REF_FRAME      = TEME
TIME_SYSTEM    = UTC
MEAN_ELEMENT_THEORY = SGP/SGP4

EPOCH          = 2026-01-07T10:21:56.245536
MEAN_MOTION    = 14.14590100
ECCENTRICITY   = .0003658
INCLINATION    = 71.0021
RA_OF_ASC_NODE = 1.0468
ARG_OF_PERICENTER = 157.5814
MEAN_ANOMALY   = 202.5469

EPHEMERIS_TYPE = 0
CLASSIFICATION_TYPE = U
NORAD_CAT_ID   = 28353
ELEMENT_SET_NO = 999
REV_AT_EPOCH   = 11417
BSTAR          = .16668E-3
MEAN_MOTION_DOT = .273E-5
MEAN_MOTION_DDOT = 0

CCSDS_OMM_VERS = 2.0
CREATION_DATE  = 
ORIGINATOR     = 

OBJECT_NAME    = CZ-4B R/B
OBJECT_ID      = 2004-035C
CENTER_NAME    = EARTH
REF_FRAME      = TEME
TIME_SYSTEM    = UTC
MEAN_ELEMENT_THEORY = SGP/SGP4

EPOCH          = 2026-01-07T08:53:01.332384
MEAN_MOTION    = 15.27878226
ECCENTRICITY   = .003274
INCLINATION    = 97.3575
RA_OF_ASC_NODE = 42.3758
ARG_OF_PERICENTER = 183.3065
MEAN_ANOMALY   = 176.7963

EPHEMERIS_TYPE = 0
CLASSIFICATION_TYPE = U
NORAD_CAT_ID   = 28415
ELEMENT_SET_NO = 999
REV_AT_EPOCH   = 17054
BSTAR          = .29234E-3
MEAN_MOTION_DOT = .8007E-4
MEAN_MOTION_DDOT = 0

CCSDS_OMM_VERS = 2.0
CREATION_DATE  = 
ORIGINATOR     = 

OBJECT_NAME    = CZ-2C R/B
OBJECT_ID      = 2004-046B
CENTER_NAME    = EARTH
REF_FRAME      = TEME
TIME_SYSTEM    = UTC
MEAN_ELEMENT_THEORY = SGP/SGP4

EPOCH          = 2026-01-07T11:34:25.339872
MEAN_MOTION    = 14.26961616
ECCENTRICITY   = .013908
INCLINATION    = 98.1999
RA_OF_ASC_NODE = 286.2625
ARG_OF_PERICENTER = 336.3565
MEAN_ANOMALY   = 23.1265

EPHEMERIS_TYPE = 0
CLASSIFICATION_TYPE = U
NORAD_CAT_ID   = 28480
ELEMENT_SET_NO = 999
REV_AT_EPOCH   = 9977
BSTAR          = .14404E-3
MEAN_MOTION_DOT = .346E-5
MEAN_MOTION_DDOT = 0

CCSDS_OMM_VERS = 2.0
CREATION_DATE  = 
ORIGINATOR     = 

OBJECT_NAME    = ARIANE 5 R/B
OBJECT_ID      = 2004-049H
CENTER_NAME    = EARTH
REF_FRAME      = TEME
TIME_SYSTEM    = UTC
MEAN_ELEMENT_THEORY = SGP/SGP4

EPOCH          = 2026-01-07T11:00:33.458976
MEAN_MOTION    = 14.85100198
ECCENTRICITY   = .0084188
INCLINATION    = 98.2539
RA_OF_ASC_NODE = 173.6660
ARG_OF_PERICENTER = 188.7580
MEAN_ANOMALY   = 171.2170

EPHEMERIS_TYPE = 0
CLASSIFICATION_TYPE = U
NORAD_CAT_ID   = 28499
ELEMENT_SET_NO = 999
REV_AT_EPOCH   = 13670
BSTAR          = .18518E-3
MEAN_MOTION_DOT = .1622E-4
MEAN_MOTION_DDOT = 0

CCSDS_OMM_VERS = 2.0
CREATION_DATE  = 
ORIGINATOR     = 

OBJECT_NAME    = CZ-2D R/B
OBJECT_ID      = 2005-024B
CENTER_NAME    = EARTH
REF_FRAME      = TEME
TIME_SYSTEM    = UTC
MEAN_ELEMENT_THEORY = SGP/SGP4

EPOCH          = 2026-01-07T11:29:22.894944
MEAN_MOTION    = 15.55004230
ECCENTRICITY   = .0003267
INCLINATION    = 97.3625
RA_OF_ASC_NODE = 20.6301
ARG_OF_PERICENTER = 227.5309
MEAN_ANOMALY   = 132.5669

EPHEMERIS_TYPE = 0
CLASSIFICATION_TYPE = U
NORAD_CAT_ID   = 28738
ELEMENT_SET_NO = 999
REV_AT_EPOCH   = 13025
BSTAR          = .42182E-3
MEAN_MOTION_DOT = .28245E-3
MEAN_MOTION_DDOT = 0

